name,phone,email,country,numberrange,region
Eugenia Mays,1-771-586-9623,donec@outlook.com,Italy,357,Biobío
Tatiana Bowman,(883) 764-5236,euismod.ac@google.net,China,456,Troms og Finnmark
Dacey Hartman,(177) 869-5511,felis.nulla.tempor@yahoo.com,Vietnam,457,Western Visayas
Kermit Turner,1-473-698-3107,ipsum@aol.couk,Peru,1298,Burgenland
Dexter Allison,1-611-768-8228,pede.et.risus@aol.org,South Korea,697,West Papua
Kenneth Herring,1-253-618-3282,dictum.sapien@aol.ca,Pakistan,675,Puno
Neil Glenn,(823) 337-0816,risus.morbi@yahoo.net,New Zealand,489,Queensland
Yoko Barr,(874) 622-3545,purus.gravida.sagittis@aol.couk,Peru,385,Delta
Ralph Avila,(543) 796-8257,penatibus.et@aol.ca,Chile,691,Lagos
Jack Haley,(809) 982-2848,porttitor.scelerisque@hotmail.net,Peru,1058,Rio de Janeiro
Fletcher Mullins,(326) 953-9584,penatibus.et.magnis@hotmail.couk,Nigeria,1277,Pembrokeshire
Tanya Sampson,(230) 754-6624,morbi@aol.edu,Brazil,115,Orenburg Oblast
Regan Hebert,1-455-511-8171,auctor@protonmail.edu,Ukraine,813,Rio de Janeiro
Gavin Peterson,1-867-213-2553,sapien.aenean.massa@google.ca,Austria,1460,Istanbul
Declan Sims,(125) 851-6784,consectetuer.adipiscing.elit@icloud.ca,Sweden,1154,East Region
Nell Lott,(392) 439-8311,cum.sociis@icloud.ca,China,180,Ogun
Drake Finley,1-277-830-5116,vivamus.nibh@hotmail.ca,Australia,882,Bahia
Hedley Simon,(377) 577-8167,tincidunt@protonmail.org,Singapore,127,Andalucía
Kane Bennett,(662) 122-5133,accumsan.sed@outlook.ca,South Africa,1731,Maranhão
Lavinia Flynn,(873) 914-8375,consectetuer@protonmail.net,Netherlands,350,Guainía
Colby Hicks,1-708-838-6084,phasellus.nulla@icloud.com,Turkey,1989,Free State
Alana Pittman,(627) 988-0465,lorem@outlook.edu,Vietnam,1929,Essex
Malachi Callahan,1-288-822-1718,consectetuer@hotmail.ca,Germany,401,Ninh Thuận
Chastity Martin,(268) 760-3707,non@hotmail.org,Spain,1917,South Island
Ella Bishop,(910) 317-6153,lobortis.quis@outlook.couk,South Africa,128,Ohio
Signe Juarez,1-635-510-2666,ligula@yahoo.org,Philippines,738,Sumy oblast
Jamal Sargent,(815) 635-8568,nunc.ac.mattis@yahoo.com,Singapore,1565,Sindh
Chava Lane,1-286-732-3425,id@google.com,Ukraine,117,British Columbia
Hermione Mccoy,1-855-433-7648,sem.semper.erat@protonmail.com,Vietnam,1014,Amazonas
Justine Melendez,(610) 519-6418,volutpat.nulla.dignissim@aol.net,Pakistan,1482,Guanacaste
Jaime Hubbard,(324) 217-4477,a.nunc@hotmail.ca,Spain,505,Tarapacá
Serena Haley,1-757-616-6338,convallis.ante@hotmail.com,Nigeria,783,Junín
Donovan Koch,1-313-271-5633,iaculis.aliquet@outlook.edu,United States,305,Chhattisgarh
Fleur Mathews,1-781-712-2233,mauris.sapien@icloud.com,France,1409,Møre og Romsdal
Jack Barnett,1-527-546-4108,sociis.natoque.penatibus@aol.couk,Italy,123,Hà Nội
Nora Fletcher,(809) 218-7418,risus.varius@aol.ca,Indonesia,1427,Illinois
Ignacia Oliver,1-825-318-8582,mus.aenean.eget@yahoo.org,Costa Rica,1562,Kocaeli
Sandra Gomez,(517) 633-3325,elementum.at@icloud.couk,Colombia,976,Western Australia
Berk Wolf,(832) 752-7443,vitae@yahoo.com,Philippines,225,New Brunswick
Kai Dotson,(738) 203-0736,augue.id@protonmail.net,Ireland,294,South Australia
Alma Jordan,(676) 517-1887,consectetuer@icloud.com,Sweden,1139,Loreto
Marshall Burt,1-638-338-5787,libero@yahoo.couk,Nigeria,1836,O'Higgins
Ryder Howe,1-911-421-1765,et.rutrum@yahoo.com,Sweden,1050,Luxemburg
Wyatt Pope,(321) 527-1242,gravida.praesent.eu@google.ca,United States,801,Vestland
Scott Neal,1-274-832-7815,morbi.quis.urna@hotmail.edu,Turkey,417,Chernivtsi oblast
Veda Santiago,1-921-302-7846,gravida.sit@icloud.edu,Germany,886,Jambi
Jerry Patton,1-965-916-6653,elit.erat.vitae@google.net,Canada,1790,KwaZulu-Natal
Emerson Dillon,1-359-293-4256,ligula.aenean@hotmail.edu,Brazil,1207,Northern Cape
Grace Parsons,1-941-260-2874,neque.sed@hotmail.ca,Ireland,836,Cajamarca
Britanni Beck,1-345-432-0287,id.magna.et@yahoo.org,China,627,Munster
Roanna Prince,1-230-589-7587,amet.dapibus@yahoo.couk,Sweden,1251,Pará
Xyla Crosby,1-329-921-5448,sagittis.lobortis@icloud.ca,Sweden,756,Bayern
Nathan Hoover,1-721-647-1837,phasellus.libero@google.couk,China,648,Castilla - La Mancha
Herman Warren,1-277-486-9256,vel.arcu@aol.net,Italy,1018,Rio de Janeiro
Colton Boone,(669) 775-2815,enim@google.edu,Singapore,1470,Veracruz
Dai Mclaughlin,(301) 692-6468,semper.nam@protonmail.couk,Vietnam,761,Haute-Normandie
MacKenzie Miranda,1-847-773-7514,egestas.fusce@protonmail.ca,United Kingdom,1944,O'Higgins
Cullen Duffy,(811) 266-0572,hendrerit.neque@protonmail.net,Turkey,870,Kemerovo Oblast
Grace Galloway,(546) 842-8318,bibendum@hotmail.couk,Russian Federation,657,Sumy oblast
Dieter Bryan,1-668-476-7116,dolor.sit.amet@yahoo.ca,Russian Federation,716,Central Region
Elliott Mullins,(723) 938-4801,nisi@protonmail.ca,Australia,838,Gaziantep
Julian Mills,(113) 458-8338,dolor@google.org,Costa Rica,1938,Salzburg
Paul Michael,1-117-294-8472,nulla.magna@icloud.com,Germany,1767,Innlandet
Bianca Olson,1-657-936-4613,dui.cum.sociis@google.couk,Belgium,719,Biobío
Nash Lynn,1-468-760-7283,nam.ac@google.edu,Colombia,674,North Island
Kelly Sims,1-224-967-6185,nunc@protonmail.edu,Turkey,1434,Punjab
Anne Dillard,(326) 334-2448,ac@icloud.com,Ukraine,1860,Aceh
Celeste Galloway,(658) 663-3597,sociis@aol.org,Chile,567,São Paulo
Cailin Harrison,1-278-495-9369,cursus.diam@hotmail.com,Ireland,595,Opolskie
Hyatt Norris,(646) 427-8232,est.mollis.non@aol.net,Poland,801,Victoria
Clinton Dominguez,(433) 431-1866,risus.varius.orci@aol.com,Germany,447,North Jeolla
Bell York,1-340-476-4893,fusce.mi@hotmail.edu,United States,1076,Noord Holland
Kiona Leblanc,(768) 965-5308,metus@icloud.edu,United Kingdom,1982,Khyber Pakhtoonkhwa
Oren Kelly,1-187-545-8721,dapibus.quam@outlook.com,Chile,1147,Cordillera Administrative Region
Chaim Ryan,(319) 379-5824,id.nunc.interdum@icloud.org,Austria,367,Salzburg
Merritt Joyce,1-259-154-0284,neque@protonmail.com,Pakistan,1245,Loreto
Jelani Blake,1-657-639-1338,faucibus.lectus@google.net,United Kingdom,1525,Kherson oblast
Callum Sampson,1-667-710-3542,mauris@icloud.couk,Australia,650,Lào Cai
Abdul Lott,1-555-770-4442,vitae.erat.vivamus@aol.edu,India,1724,Dalarnas län
Raphael Travis,1-414-853-5338,ligula@outlook.org,Spain,1051,Haryana
Aquila West,1-546-929-7828,massa.integer@outlook.edu,Ireland,832,Atlántico
Melodie Fischer,(574) 965-6764,vel.arcu.eu@yahoo.ca,Chile,874,Zhōngnán
Arden Fitzpatrick,(511) 324-3115,arcu.sed@hotmail.couk,Belgium,1254,West Lothian
Callum Little,(125) 515-1015,volutpat.nulla.facilisis@aol.com,Brazil,1093,California
Marsden Kent,(847) 807-5601,laoreet.lectus.quis@aol.ca,Spain,1420,Wielkopolskie
Theodore Jordan,1-703-564-3550,ac@hotmail.couk,Netherlands,1350,Chiapas
Preston Skinner,(401) 388-1776,consectetuer.adipiscing@yahoo.org,New Zealand,1251,Western Cape
Todd Torres,(593) 414-7634,et.ultrices@hotmail.net,Italy,1758,New South Wales
Dalton Hewitt,(434) 417-9277,at.velit.cras@icloud.ca,Italy,795,Provence-Alpes-Côte d'Azur
Daria Hodge,1-784-484-2796,non.massa@protonmail.couk,Turkey,172,Paraná
Wade Murray,(284) 710-4048,sollicitudin.commodo@google.com,France,829,Paraíba
Ignatius Powers,1-749-416-4454,dui.nec@google.edu,Italy,1139,Saarland
Reese Macdonald,(741) 582-1833,nisi.cum@outlook.net,Pakistan,1731,Molise
Lenore Hobbs,(799) 848-4620,molestie@yahoo.ca,South Africa,209,Eastern Cape
Dane Trujillo,(513) 833-1763,ipsum.dolor@hotmail.org,Sweden,1168,Lincolnshire
Lester Kennedy,1-834-677-3073,vulputate.lacus@outlook.edu,Italy,387,Saint Petersburg City
Lamar Campbell,1-586-363-3233,leo.cras@hotmail.org,Indonesia,1681,Dalarnas län
Colorado Fleming,1-766-523-0389,nisi.nibh@aol.edu,Costa Rica,719,Meghalaya
Quemby Terrell,1-304-862-9375,dictum.magna.ut@yahoo.com,Austria,559,Coquimbo
Lester Ashley,1-242-524-2333,posuere@google.ca,Vietnam,1414,Ceará
Vladimir Hall,(346) 235-2638,dolor.nonummy@hotmail.edu,Chile,882,Zuid Holland
Maite Mclaughlin,1-407-875-6167,consequat@hotmail.ca,Philippines,804,Xīběi
Steel James,(988) 810-2739,sapien.cras@hotmail.net,Ireland,1358,Boyacá
Lev English,(786) 614-6882,dictum@hotmail.org,Ireland,1227,Munster
Chase Mcdonald,(453) 874-6263,adipiscing.elit@yahoo.ca,South Korea,1914,Podkarpackie
Kaye Bennett,1-336-488-2166,mi.tempor@yahoo.net,Australia,1721,Nariño
Quin Abbott,1-546-374-6367,lobortis.risus@icloud.couk,Poland,1110,San José
Lynn Clayton,(748) 813-6372,tellus.id@icloud.edu,Austria,456,Kincardineshire
Deacon Durham,1-674-844-9422,integer.vulputate@protonmail.org,Chile,516,Namen
Ryan Black,(627) 315-3985,sagittis.augue@outlook.net,Canada,166,Adana
Dillon Ashley,1-224-772-8094,elit.pharetra@icloud.net,New Zealand,1019,Meghalaya
Nell Dickerson,(511) 364-5060,nec.mollis.vitae@yahoo.edu,Singapore,1809,Paraíba
Cecilia Galloway,1-383-643-8644,iaculis.enim.sit@google.net,Canada,957,Rio Grande do Sul
Kimberly Finch,(859) 881-4577,commodo@hotmail.org,India,655,Oregon
Yuli Shaffer,(655) 224-3610,mus.proin.vel@yahoo.org,Nigeria,208,Arunachal Pradesh
Gavin Elliott,1-207-919-2037,sagittis.augue@google.com,India,1325,Ogun
Jordan Ortiz,(706) 736-0427,ipsum.dolor@aol.com,Germany,363,Junín
Angela Griffin,1-851-389-7467,dictum.mi@aol.ca,Indonesia,1556,Davao Region
Shellie Kent,1-814-678-6276,metus.eu.erat@hotmail.edu,Australia,1797,Saskatchewan
Graham Carrillo,(461) 944-5606,arcu.eu.odio@protonmail.couk,Singapore,1620,Lombardia
Murphy Whitaker,1-795-401-8811,dapibus.ligula@hotmail.couk,Pakistan,1201,Ulster
Karen Forbes,1-648-330-5187,diam.luctus@outlook.com,Singapore,203,Principado de Asturias
Ian Delacruz,(776) 636-1577,non@protonmail.edu,Turkey,190,Ninh Thuận
Baker Simon,(589) 166-2428,enim.mauris.quis@icloud.edu,Philippines,1372,Connacht
Hadassah James,(273) 864-1168,nonummy.ut@protonmail.com,South Africa,1553,Gorontalo
Harlan Lara,1-481-544-5275,bibendum.fermentum@protonmail.org,Australia,663,Luxemburg
Abdul Mcintyre,1-949-428-5581,ligula.nullam@google.ca,South Korea,1065,Hessen
Zahir Bush,1-473-807-8449,metus.eu@outlook.net,Chile,1316,Sakhalin Oblast
Yetta Hudson,1-646-891-3924,ad.litora@icloud.org,India,1738,Ivano-Frankivsk oblast
Fiona Waters,(455) 654-5883,risus.donec@hotmail.com,South Africa,192,Bihar
Yasir Forbes,1-598-851-7266,arcu.vel@outlook.org,Philippines,1586,Ulster
Hector Preston,(258) 478-2636,nam.porttitor@icloud.org,Canada,1408,Limón
Keiko Burke,(849) 384-0637,sed@google.edu,Costa Rica,898,Luhansk oblast
Porter Jordan,(917) 431-1163,nam.ac.nulla@google.edu,Chile,1699,West Bengal
Glenna Mills,1-524-882-1768,amet.dapibus@outlook.net,Sweden,1076,Sardegna
Tarik Long,(632) 439-5374,hendrerit.consectetuer@outlook.com,Pakistan,1913,Kogi
Hanae Clemons,(361) 242-2028,libero.dui@outlook.net,Chile,1405,Kaliningrad Oblast
Kyle Patton,(477) 222-6617,massa.suspendisse.eleifend@hotmail.couk,Australia,901,Sikkim
Jeanette Houston,(416) 223-8746,ipsum@outlook.com,Italy,517,Rivne oblast
Galvin Barry,(896) 221-1304,sapien.cras@yahoo.net,Russian Federation,1431,Ontario
Zorita Vega,(686) 218-5969,sed.id.risus@google.edu,Turkey,620,Warmińsko-mazurskie
Timon Hodge,1-327-443-6883,elementum.sem@icloud.ca,Austria,512,Loreto
Salvador Wilson,(618) 394-1072,lectus.cum@google.net,Spain,1799,Yorkshire
Hilary Holcomb,(449) 769-8701,metus@protonmail.com,Pakistan,1088,Andhra Pradesh
Chantale Bass,1-262-533-9280,adipiscing.ligula.aenean@aol.com,Pakistan,1603,Sinaloa
Calista Russell,1-791-458-3863,sem.semper@aol.edu,Italy,1958,Alsace
Charissa Patrick,(712) 380-7823,sapien.cras@hotmail.net,Russian Federation,1929,Odessa oblast
Caleb Payne,(755) 147-1175,fringilla.ornare@protonmail.ca,Netherlands,1064,Friesland
Brenden Brady,1-621-515-4840,nisi.a@google.net,Italy,1108,Hertfordshire
Aristotle Wynn,1-920-785-1482,orci.ut.semper@outlook.org,China,420,Berlin
Ocean Sandoval,(875) 637-3380,nascetur@hotmail.couk,Italy,989,Jeju
Josiah Valenzuela,(318) 485-6672,molestie.dapibus@yahoo.org,China,230,North Region
Nasim Barnes,(878) 436-0146,orci.ut@outlook.edu,Singapore,1090,Cartago
Hector Boyer,1-678-551-8123,volutpat.ornare.facilisis@yahoo.org,Mexico,1055,Chernihiv oblast
Ria Santos,1-564-308-2265,cras.dolor.dolor@protonmail.org,Ireland,1176,Sicilia
Steel Dillon,(342) 775-3217,ante.ipsum@yahoo.com,Nigeria,1996,Heredia
Margaret Pacheco,(746) 497-7362,donec.est@google.com,Spain,396,Nebraska
Jacob Rivera,(846) 443-9581,magna.malesuada@yahoo.com,Italy,361,Saskatchewan
Hillary Jimenez,(757) 311-8749,tincidunt.congue@protonmail.ca,Poland,305,Coquimbo
Cleo Butler,(337) 858-6378,vehicula@yahoo.com,India,306,Madrid
Axel Townsend,1-587-131-0366,nunc.est@aol.org,Russian Federation,1802,FATA
Aspen Pruitt,(211) 602-5331,arcu.iaculis.enim@outlook.net,Germany,938,South Island
Medge Boone,1-778-624-6252,malesuada@aol.net,United States,845,Zaporizhzhia oblast
Zeph Tran,1-336-626-2287,ante.nunc@outlook.org,United Kingdom,731,Bremen
Dennis Flowers,(134) 551-4241,suspendisse.tristique@outlook.org,South Korea,919,Madhya Pradesh
Noel Raymond,(263) 928-2417,at.fringilla@hotmail.couk,Peru,166,Odessa oblast
Raphael Mitchell,1-490-256-2121,dolor.dapibus.gravida@outlook.org,Turkey,157,Picardie
Jin Keller,1-334-292-1349,duis@icloud.ca,Australia,629,Leinster
Joshua Wilkerson,(273) 174-5466,leo.cras@protonmail.com,Colombia,1570,Murmansk Oblast
Salvador Morris,(236) 605-5166,ipsum.suspendisse.sagittis@icloud.couk,Australia,554,Ankara
Dorian Horne,1-582-162-4616,eget.odio.aliquam@google.com,Costa Rica,654,São Paulo
Chava Small,(786) 632-2977,mauris@yahoo.com,Norway,1069,Oslo
Arden Estes,(508) 911-8542,elementum.dui@google.couk,Poland,647,North Region
Bertha Townsend,(677) 914-8418,at.egestas@icloud.com,Indonesia,982,Cherkasy oblast
Keane Nolan,1-759-914-1425,turpis.in.condimentum@protonmail.ca,United Kingdom,1557,Cornwall
Keiko Delacruz,(526) 606-6847,dictum.augue.malesuada@aol.edu,Spain,919,South Chungcheong
Ramona Gutierrez,1-274-253-1850,mauris.suspendisse.aliquet@hotmail.ca,Nigeria,183,Brussels Hoofdstedelijk Gewest
Allistair Alexander,1-256-374-5792,libero.proin@aol.ca,Spain,980,Cantabria
Shafira Contreras,1-769-111-4582,donec.felis@hotmail.net,Indonesia,1749,South Australia
Kenyon Glass,1-273-627-5154,tortor.dictum@yahoo.ca,Canada,1971,Oregon
Warren Cherry,1-979-381-2854,ut.nulla.cras@hotmail.edu,Sweden,530,San José
Lamar Williamson,(175) 837-5345,erat@outlook.couk,Colombia,1781,Smolensk Oblast
Levi Baker,(724) 255-2120,lacus@yahoo.com,Costa Rica,753,Antalya
Regan Gillespie,1-768-867-5244,turpis@icloud.couk,United Kingdom,1155,Munster
Winifred David,(322) 772-4800,erat.etiam@icloud.net,Indonesia,363,Córdoba
Brett Tyler,1-681-588-2360,cras@hotmail.ca,South Africa,793,Haute-Normandie
Abbot Flynn,(466) 431-1423,nascetur@protonmail.edu,Canada,1817,Friuli-Venezia Giulia
Penelope Zimmerman,1-779-291-3558,semper.tellus@protonmail.edu,Mexico,197,Samsun
Sigourney Wood,1-745-262-2645,non.bibendum@aol.couk,Chile,340,Vinnytsia oblast
Lillian Bowman,1-308-138-7153,nulla@aol.com,Turkey,1886,Alajuela
Brian Lambert,(243) 774-7292,nec.quam.curabitur@yahoo.ca,Spain,1374,Vestfold og Telemark
Whilemina Torres,1-352-513-3289,euismod.et@icloud.net,New Zealand,374,Kherson oblast
Deacon Kelly,(582) 847-6653,pede.nec@google.edu,Austria,168,Jigawa
Faith Castro,1-202-192-6485,risus.odio.auctor@icloud.couk,Canada,675,Pará
Lareina Skinner,1-325-571-7212,et.tristique@hotmail.ca,United Kingdom,611,Comunitat Valenciana
Stuart Duran,(971) 372-1262,magna.phasellus@hotmail.ca,United Kingdom,1644,Vorarlberg
Desirae Bray,1-666-382-2813,in.mi@protonmail.org,South Africa,1220,Papua
Ira Estrada,1-189-533-1847,turpis.nulla.aliquet@yahoo.edu,France,941,Xīnán
Yuli Franco,(286) 786-5224,quis.turpis@yahoo.edu,Vietnam,1142,Minas Gerais
Ishmael Howe,(565) 624-3728,ut@icloud.org,Turkey,690,Haute-Normandie
Hilary Monroe,(481) 402-5422,at@icloud.ca,Costa Rica,1063,Hatay
Zorita May,(667) 454-9428,vel.faucibus@aol.com,Chile,1143,Vologda Oblast
Vivien Dickson,(543) 768-3678,magna.ut@aol.couk,Ireland,509,Casanare
Kimberly Davenport,(314) 328-6320,iaculis.lacus.pede@aol.couk,Germany,245,Limburg
Jesse Cox,1-640-152-3469,in.hendrerit.consectetuer@yahoo.org,Ukraine,1157,Cesar
Sasha Garza,(613) 505-2542,iaculis@outlook.com,New Zealand,382,Cajamarca
Dorian Duncan,(264) 551-7281,curae@outlook.ca,Sweden,1345,Bedfordshire
Jena Combs,(413) 787-7893,ante@icloud.com,India,1389,Huádōng
Vladimir Rivers,(669) 803-3696,amet.orci.ut@protonmail.com,Brazil,846,Västra Götalands län
Timothy Lane,1-188-359-3089,quam.quis@outlook.couk,Ireland,1303,Tamaulipas
McKenzie Berg,1-223-728-9285,tempus.mauris.erat@protonmail.edu,Nigeria,1598,Moscow Oblast
Emi Eaton,(715) 599-5429,egestas.blandit@google.ca,Pakistan,1356,Aisén
Jermaine Mccall,(513) 213-2212,ligula.tortor@outlook.edu,Australia,1589,Principado de Asturias
Amaya Sawyer,(186) 345-7567,sapien.imperdiet@icloud.net,United Kingdom,845,Limón
Kelsey Hoffman,1-568-351-0612,dolor.nulla@google.com,China,1935,East Java
Zane Keller,(151) 412-5332,nec.urna@icloud.ca,Vietnam,1730,Tabasco
Fredericka Jackson,1-461-814-5181,facilisis.lorem@yahoo.net,Netherlands,1912,South Jeolla
Lance Howe,(415) 621-1436,congue.in.scelerisque@icloud.edu,Brazil,1048,Soccsksargen
Bo Young,1-727-611-6925,nibh.donec@google.edu,Chile,203,La Guajira
Melvin Mooney,1-483-565-3791,metus.eu@yahoo.com,United States,477,Northern Mindanao
Emi Howard,(698) 764-6178,orci@icloud.com,Russian Federation,1624,Central Java
Katelyn Johnson,1-644-456-8770,sed@protonmail.edu,Germany,1454,Tamaulipas
Travis Briggs,1-510-581-7975,a@yahoo.org,Poland,360,Henegouwen
Melyssa Allen,(855) 967-3562,lacus@aol.ca,Singapore,1703,South Jeolla
Roth Harrison,1-825-351-3576,metus.sit@google.com,Costa Rica,776,Loreto
Benedict Stone,(341) 733-3455,mauris@google.couk,Sweden,1202,Waals-Brabant
Robin Chambers,1-975-551-4992,lectus.cum@protonmail.net,Norway,1366,Lubuskie
Garrison George,(277) 525-4875,cras.lorem.lorem@google.net,United States,1794,Bremen
Ira Holman,1-688-327-2273,interdum.nunc@hotmail.org,India,222,Huáběi
Elmo Hinton,1-566-549-4403,a@google.edu,France,1129,Pará
Rebecca Mccray,(875) 535-3469,taciti.sociosqu@yahoo.ca,Costa Rica,1761,Innlandet
Kerry Morgan,1-808-945-7235,nibh.lacinia@outlook.com,Ukraine,112,KwaZulu-Natal
Zephania Ratliff,(807) 661-6744,proin.velit.sed@protonmail.edu,Brazil,1926,Indiana
Wayne Dudley,1-838-797-3488,ornare.fusce.mollis@hotmail.net,Costa Rica,277,Guainía
Deborah Carey,(813) 273-3751,magna.nec.quam@icloud.edu,Costa Rica,1465,Berlin
Ira Lane,(858) 582-3168,elementum.purus@google.com,New Zealand,1285,Azad Kashmir
Delilah Newton,1-362-658-1487,nulla.magna@icloud.org,Russian Federation,1776,Salzburg
Echo Pennington,(758) 757-0832,vel.pede.blandit@hotmail.couk,Colombia,496,Dalarnas län
Ian Morrison,(281) 333-7575,id.nunc.interdum@icloud.ca,Peru,223,Noord Holland
Miriam Mcfadden,(609) 501-8322,nibh.quisque.nonummy@icloud.com,Turkey,1335,Central Region
Yardley Moon,1-762-538-9715,justo@google.edu,Pakistan,617,Dalarnas län
Bertha Price,1-889-157-1069,dapibus.id.blandit@yahoo.com,Singapore,1378,Vorarlberg
TaShya Phillips,1-212-472-6627,vitae@protonmail.couk,Netherlands,155,Dalarnas län
Colleen Stevenson,(737) 232-9318,id@google.ca,United States,796,Huádōng
Lance Reilly,1-926-375-7168,ut.erat@outlook.couk,Australia,1785,Northern Territory
Mikayla Mcleod,(885) 714-8657,diam.vel@hotmail.couk,Ukraine,219,East Region
Harding Patel,1-936-791-1113,cursus@icloud.edu,Pakistan,1748,Tula Oblast
Joelle Morrow,1-955-458-6134,arcu.vestibulum@yahoo.net,China,1198,Puntarenas
Yoshio Yates,(588) 634-9778,ante@protonmail.org,India,524,Waals-Brabant
May Vaughan,1-442-630-3414,interdum.feugiat.sed@icloud.org,Ukraine,1509,Western Cape
Stephen Estrada,(422) 950-8137,tellus.faucibus.leo@hotmail.ca,Brazil,518,North Island
Darrel Kidd,1-228-866-2713,adipiscing.mauris@hotmail.couk,Italy,1305,Connacht
Clio Sampson,(246) 265-6220,arcu.eu.odio@aol.org,Indonesia,1593,Opolskie
Dylan Lucas,1-525-318-8351,proin.ultrices.duis@icloud.couk,Australia,1530,Tasmania
Zephr Dillon,(910) 571-0443,nulla.semper@icloud.com,Sweden,588,East Region
Keegan Chang,1-713-188-6548,auctor@yahoo.ca,Germany,951,Baja California
Chase Cotton,(671) 774-7715,convallis.ante.lectus@aol.org,South Korea,1077,Ulster
Chaney Gonzalez,(231) 816-6678,morbi.tristique@yahoo.net,Peru,1097,Zakarpattia oblast
Nehru Simpson,1-273-662-2818,augue.sed@google.com,South Africa,1230,Franche-Comté
Moses Morales,1-787-752-5771,bibendum@google.org,Australia,1979,Dōngběi
Rina Gamble,(278) 725-3648,non@outlook.couk,Philippines,109,Xīběi
Tad Allen,(859) 592-9884,at.libero@protonmail.com,Mexico,916,Valle del Cauca
Halee Reese,1-567-833-4194,neque.tellus.imperdiet@google.com,New Zealand,1266,Rivne oblast
Petra Hines,1-785-462-8601,a.facilisis@google.net,Australia,125,Ilocos Region
Hiram Schwartz,1-509-687-8337,mattis@outlook.couk,Philippines,1150,Lower Austria
September Neal,(418) 552-3175,cursus.diam@aol.net,Turkey,1950,Antofagasta
Finn O'Neill,1-761-353-3535,ornare.egestas.ligula@yahoo.edu,Spain,1414,South Island
Nathaniel Perkins,(492) 464-4234,pharetra.sed.hendrerit@outlook.net,France,665,North Island
Joelle Hinton,(945) 378-4606,tellus.imperdiet@outlook.net,Belgium,1734,Valparaíso
Hedda Summers,1-347-637-3046,nunc.risus@protonmail.org,Germany,1652,Western Visayas
Hamish Sanchez,1-776-666-2577,in.condimentum@icloud.couk,France,322,Languedoc-Roussillon
Kylynn Richards,(369) 646-5615,proin@google.com,Vietnam,649,Île-de-France
Wayne Richardson,(753) 824-2529,lobortis.mauris.suspendisse@yahoo.edu,France,1163,Burgenland
Mechelle Mendez,1-609-294-9260,purus.ac@aol.couk,Chile,1248,Junín
Elmo English,(259) 815-1355,imperdiet@outlook.com,Sweden,508,Tasmania
Ezekiel Walker,(833) 376-6162,ac.fermentum@protonmail.com,Vietnam,1230,Carinthia
Hall Ware,1-711-716-6876,posuere.cubilia@icloud.ca,Netherlands,227,Zhōngnán
Mikayla Francis,1-897-251-8906,quisque.libero@icloud.org,Brazil,273,Östergötlands län
Summer Norris,1-660-845-0724,gravida.sagittis@hotmail.ca,South Africa,1405,Limpopo
Meghan Jarvis,1-181-259-7025,neque.non@yahoo.com,Costa Rica,120,Arunachal Pradesh
Alexis Santana,(246) 778-5183,morbi.accumsan.laoreet@outlook.org,France,1274,East Region
Fulton Woods,(704) 153-5154,ornare.egestas@aol.couk,Italy,714,Western Australia
Mari Herman,(181) 949-2318,dolor@hotmail.couk,Sweden,1038,Papua
Janna Wood,1-877-733-7552,dictum.eleifend.nunc@google.ca,Ireland,1944,Borno
Quamar Miranda,(259) 522-7384,accumsan.sed@google.net,United States,973,Bali
Scarlett Sanchez,1-873-337-2639,vel.sapien.imperdiet@yahoo.couk,Pakistan,615,Heredia
Karen Rocha,(371) 112-1218,sed.nulla@aol.org,Turkey,138,Sokoto
Kenneth Solomon,1-833-122-7501,ultrices.sit@yahoo.edu,Singapore,1168,Flevoland
Veronica Mclaughlin,(141) 551-1722,ligula@hotmail.couk,Ireland,1066,Kayseri
Mariko Le,(585) 732-2599,convallis@outlook.org,Italy,1541,La Libertad
Reece Norman,1-367-746-3802,aliquet.nec@outlook.org,Indonesia,995,Bolívar
Nash Wolf,1-413-581-5858,diam.pellentesque.habitant@yahoo.com,Netherlands,1791,Volgograd Oblast
Warren Slater,(568) 548-3422,donec.sollicitudin.adipiscing@outlook.ca,Ukraine,104,North Island
Deanna Neal,(547) 532-8718,convallis.ante@protonmail.edu,United Kingdom,430,Zhōngnán
Theodore Mckinney,(505) 483-3574,cras.lorem.lorem@outlook.ca,United Kingdom,1263,Munster
Mannix Randall,(475) 551-6771,dui.in@yahoo.couk,Indonesia,625,Vologda Oblast
James Beck,(320) 971-7880,magna.duis@yahoo.net,Peru,337,Molise
Kessie O'brien,(983) 547-9215,euismod.enim.etiam@outlook.com,Philippines,383,Møre og Romsdal
Hedda Doyle,1-236-606-7736,nonummy@yahoo.couk,Sweden,640,İzmir
Ora Everett,(841) 254-5473,nam.tempor@protonmail.couk,Peru,1306,Aydın
Baxter Flowers,1-659-314-4254,quisque@aol.com,Indonesia,1857,Northern Cape
Justina Woodward,(452) 303-5083,ut.ipsum.ac@yahoo.com,Mexico,1305,Zuid Holland
Herrod Cannon,(456) 263-4833,volutpat@aol.com,United States,792,Distrito Capital
Holmes Alexander,(350) 858-2610,nulla.in@icloud.couk,Norway,1112,San Andrés y Providencia
Vernon York,1-432-597-1939,sem.ut@google.net,Vietnam,1904,Jeju
Laith Reynolds,1-662-334-5210,enim.sit@hotmail.couk,Pakistan,838,Waals-Brabant
Rajah Washington,(867) 502-3145,feugiat.sed.nec@outlook.net,Ireland,956,Queensland
Alexis Maxwell,1-862-888-2364,mattis.semper@aol.net,Chile,473,Katsina
Lane Ferguson,1-572-353-8875,blandit.mattis@yahoo.com,Spain,1041,Colorado
Genevieve Little,(566) 682-7761,egestas.hendrerit@protonmail.ca,Germany,1612,Azad Kashmir
Zephr Mccray,(588) 899-9388,augue.eu@protonmail.couk,Ukraine,188,East Region
Michelle Cobb,(574) 840-8616,ut.cursus.luctus@icloud.net,Pakistan,1718,Yukon
Iris Villarreal,1-248-576-7253,taciti.sociosqu@hotmail.edu,Chile,749,Lagos
Ifeoma Paul,(256) 636-9169,nec@outlook.ca,Austria,1529,Sindh
Colette Faulkner,(238) 606-9329,nullam.nisl@icloud.org,Costa Rica,106,Vorarlberg
Jerry Whitaker,(214) 576-5922,quisque@protonmail.couk,Mexico,512,North Gyeongsang
Lana Ayers,1-726-356-4354,at@protonmail.com,Ukraine,210,Gujarat
Geoffrey Arnold,1-251-387-1897,gravida.sagittis.duis@hotmail.edu,Ukraine,1848,Andalucía
Elizabeth George,1-437-981-5788,dui@protonmail.couk,France,1538,Rivers
Sandra Sherman,1-713-837-3173,ut.nec.urna@yahoo.edu,Belgium,112,Brussels Hoofdstedelijk Gewest
Kibo Gill,1-255-757-0011,cum.sociis.natoque@protonmail.couk,Sweden,730,Leinster
Chelsea Mendez,(257) 442-7646,mollis.integer@aol.ca,Australia,995,Zachodniopomorskie
Kaitlin Hayes,(739) 652-5208,dictum@hotmail.edu,Spain,970,Paraná
Wayne Pickett,1-972-614-8624,vulputate.velit@outlook.couk,Netherlands,1597,Bretagne
Gary Sellers,1-626-647-0122,donec.nibh.enim@hotmail.com,Singapore,1788,Banten
Jordan Gonzales,1-676-465-8841,dolor.dapibus.gravida@protonmail.net,South Africa,401,South Australia
Ruth Marquez,1-483-789-0851,pretium.et@aol.com,Costa Rica,323,North Island
Burton Moon,(814) 904-9903,dignissim.pharetra@hotmail.edu,China,1551,Boyacá
Patrick Griffith,1-741-654-7835,nec.malesuada@icloud.couk,Sweden,1533,North Island
Amery Becker,1-187-825-1776,dis.parturient@google.net,Netherlands,1627,Caraga
Hillary Sanders,1-578-642-6641,nunc.sollicitudin@yahoo.couk,India,1304,South Gyeongsang
Carter Hays,1-805-437-6737,nisl.sem@protonmail.ca,Netherlands,552,Queensland
Igor Pittman,(849) 882-6804,aliquet@outlook.ca,Spain,390,National Capital Region
Theodore Horn,1-717-778-0298,mollis@icloud.org,Pakistan,482,Flevoland
Cade Levy,1-848-336-9290,sed.orci.lobortis@protonmail.net,Sweden,834,Valparaíso
Shad Craft,(423) 357-1920,lorem.eu.metus@hotmail.net,Spain,1858,Noord Brabant
Wing Berg,1-840-249-3356,tincidunt.tempus@hotmail.org,Norway,409,Magadan Oblast
Omar Santana,1-324-485-5814,diam.dictum.sapien@google.edu,Indonesia,774,Drenthe
Elliott Pitts,(585) 227-3297,nulla.donec@hotmail.net,Peru,642,Balıkesir
Cruz Nguyen,1-778-806-6681,quis.turpis@protonmail.net,Spain,1839,South Chungcheong
Kirsten Gutierrez,1-677-640-2325,orci.quis@hotmail.edu,Ukraine,1080,Katsina
Hayden Long,1-777-721-8788,tempor.lorem.eget@hotmail.net,Ukraine,1841,Lombardia
Gareth Cohen,1-497-742-1128,in.tempus.eu@icloud.net,South Africa,574,Waals-Brabant
Lee Wynn,1-348-407-3535,duis.elementum@yahoo.ca,Indonesia,858,Carinthia
Amena Schmidt,1-845-422-3859,nisl.arcu.iaculis@icloud.net,France,1756,North Chungcheong
Madaline Bartlett,1-322-186-8371,et.malesuada@outlook.edu,Brazil,1380,Dōngběi
Abigail Burton,1-504-943-5208,dolor.tempus.non@yahoo.net,Philippines,1394,Tyumen Oblast
Samuel Gibson,(386) 461-7635,bibendum@icloud.com,Austria,150,Benue
Shelly Richards,1-161-411-4884,sed.dui.fusce@google.net,Germany,181,Lipetsk Oblast
Freya Walls,1-639-542-9416,mi.aliquam@google.ca,Costa Rica,1857,Massachusetts
Shoshana Chen,(393) 812-7414,vulputate.velit.eu@protonmail.net,Norway,1151,North Region
Carol Chan,1-804-847-4872,a.enim@protonmail.couk,Singapore,503,Kano
Amy Todd,(772) 880-6893,fermentum.metus.aenean@yahoo.ca,Ireland,508,Sevastopol City
Autumn Carpenter,(861) 932-5264,a.aliquet@outlook.couk,Norway,604,Dadra and Nagar Haveli
Dahlia Douglas,1-819-923-2811,justo.faucibus.lectus@yahoo.couk,Chile,1075,Vlaams-Brabant
Jermaine Cabrera,1-231-264-2537,aenean.gravida.nunc@protonmail.ca,Belgium,1613,North Region
Azalia Lawrence,(831) 272-5568,sociis.natoque@outlook.ca,United States,405,Victoria
Kenyon Barr,(571) 814-4262,vestibulum@outlook.com,Austria,539,Vlaams-Brabant
Blythe Solis,(484) 735-1434,ac@yahoo.ca,Brazil,1145,Araucanía
Patrick Page,(146) 103-1458,dui.quis@hotmail.com,Chile,1528,Huádōng
Jolene Logan,1-569-667-9323,nisl.maecenas.malesuada@outlook.edu,South Africa,1426,Caquetá
Leslie Mendoza,1-946-514-1067,aliquet.nec@protonmail.edu,Singapore,139,North Jeolla
Giacomo Morrison,(248) 866-6988,fusce.mi@yahoo.edu,Peru,1489,West Region
Chiquita Sims,(339) 776-9657,magna.sed.eu@google.net,Philippines,668,Utrecht
Dora Washington,(179) 468-7743,est.ac@outlook.couk,Colombia,125,Tver Oblast
Christen Peck,1-614-480-5162,nunc.ut.erat@aol.net,Netherlands,587,Andaman and Nicobar Islands
Tyler Graham,(555) 514-5330,enim@protonmail.couk,Colombia,1324,Gangwon
Judith Hartman,1-306-421-1219,eu.lacus@hotmail.org,Germany,371,East Region
Ulysses Roberson,1-450-337-8811,hendrerit.donec@aol.couk,Brazil,1114,Calabria
Erasmus Griffin,(480) 445-7748,cras.interdum@outlook.org,Germany,1827,Zuid Holland
Jameson Calderon,(219) 781-6733,lobortis.risus.in@yahoo.com,Philippines,369,California
Cameron Taylor,1-177-682-6853,non.sapien@yahoo.net,Indonesia,432,Cusco
Pearl Tyson,(463) 954-3580,libero.nec@protonmail.org,Indonesia,289,South Chungcheong
Ian Justice,(244) 876-2677,in@aol.com,Netherlands,1169,Gyeonggi
Tiger Wynn,(536) 212-6731,dolor.tempus@outlook.org,France,1856,Huáběi
Quinlan Hays,1-176-633-6628,massa.suspendisse@protonmail.edu,Brazil,934,Azad Kashmir
Grace Gay,(353) 597-3547,elementum.sem@icloud.net,Spain,1914,Lower Austria
Nissim Rosales,1-758-811-2263,tincidunt.vehicula@yahoo.org,Netherlands,1410,South Australia
Chester Ellis,(759) 224-4601,amet.ornare@hotmail.ca,Ukraine,1082,Poitou-Charentes
Brennan Bradford,1-873-491-1717,maecenas.libero.est@google.ca,Austria,1723,Drenthe
Dorothy Tucker,1-469-362-3803,neque.nullam.ut@icloud.com,South Korea,1652,Carinthia
Wesley Conrad,(312) 672-5636,non.dapibus@outlook.ca,Pakistan,1567,Västra Götalands län
Bruno Kirby,1-409-745-5476,vel.arcu.curabitur@outlook.edu,Canada,1607,Azad Kashmir
Baker Gibson,(779) 682-6143,amet.consectetuer@hotmail.org,United States,239,Centre
Baker Stephens,(451) 897-7624,sem@protonmail.ca,Norway,903,Ulster
Shaine Ortega,(625) 514-8111,sed@icloud.com,Philippines,972,North West
Rinah Fisher,(827) 685-4263,mattis.integer.eu@yahoo.net,Belgium,1493,South Australia
Jonah Ramsey,(504) 318-5268,neque.nullam@google.ca,Ireland,970,Arequipa
Ria Gamble,1-214-630-6412,malesuada.integer.id@yahoo.ca,Netherlands,1577,Guanacaste
Felix Hawkins,1-219-258-1396,nascetur@outlook.com,Turkey,660,Boyacá
Vivian Lloyd,(755) 381-1702,nulla.semper.tellus@outlook.org,United States,1713,Caldas
Zenia Merritt,(841) 269-4329,aenean@icloud.edu,Singapore,1632,Michoacán
Zia Bell,(424) 350-1349,dignissim.maecenas.ornare@yahoo.com,France,1788,Norte de Santander
Maggy Santiago,1-754-657-4333,magna@icloud.com,Belgium,302,Xīběi
Malachi Pickett,(211) 312-7223,facilisis@icloud.org,United States,1023,Lazio
Desirae Blanchard,(965) 333-0098,tincidunt.aliquam@google.ca,New Zealand,259,Bến Tre
Sage Welch,1-788-291-5686,in.ornare@hotmail.net,Spain,221,San José
Donovan Potts,(203) 511-8203,libero.nec@google.couk,New Zealand,1997,Bauchi
Beatrice Hebert,1-554-318-4532,eu.odio@yahoo.ca,Singapore,140,Connacht
Cairo Brennan,(846) 839-9281,purus@yahoo.edu,New Zealand,1316,North Chungcheong
Ferris Burgess,(844) 955-4141,curabitur.massa.vestibulum@icloud.couk,Indonesia,1246,Puno
Murphy Coleman,1-832-646-6944,volutpat.nulla.facilisis@outlook.ca,United Kingdom,712,Khyber Pakhtoonkhwa
Silas Cohen,1-380-216-6288,donec@hotmail.ca,Costa Rica,1394,Yukon
Paul Tran,(925) 470-8232,justo@outlook.couk,Sweden,1465,Campania
Mohammad Mueller,1-326-256-0340,duis@yahoo.org,Singapore,314,Drenthe
Guy Sharp,1-114-485-2132,mauris.erat@google.com,Australia,1152,Hà Giang
Iris Solomon,1-214-735-8787,mauris.molestie@outlook.com,Norway,728,Sucre
Allen Patton,(769) 286-0595,vel.pede.blandit@outlook.net,Canada,1988,Riau
Fulton Alston,(487) 419-9379,nullam.feugiat@google.ca,Poland,1296,East Java
Autumn Santos,1-116-409-2226,consectetuer.rhoncus.nullam@protonmail.ca,Russian Federation,1744,Luhansk oblast
Harrison Stanton,1-758-799-3588,lorem@outlook.ca,Germany,1593,North Island
Christian Blake,(351) 308-8948,aliquet.vel@outlook.com,Australia,310,Special Region of Yogyakarta
Leo Graves,(577) 215-2611,sagittis.nullam.vitae@hotmail.ca,United States,1297,Central Sulawesi
Zeus White,(771) 777-1559,vel@outlook.couk,Belgium,459,South Island
Solomon Long,(494) 752-3577,magna@protonmail.edu,Italy,1098,Antalya
Thane Cardenas,1-229-375-4172,sollicitudin.a@google.com,Pakistan,1171,North Island
Rashad Farley,1-898-317-2112,arcu.et@aol.ca,Germany,737,Hậu Giang
Lunea Joyner,1-250-703-4042,commodo@hotmail.com,Peru,968,Dalarnas län
Fritz Booth,(673) 334-4643,tincidunt.neque@google.edu,Norway,342,Connacht
Hayley Sandoval,(184) 438-1933,quisque.ac@google.couk,Spain,1540,Chihuahua
Knox Patrick,1-587-273-8992,mus.proin.vel@yahoo.net,Germany,1051,Ulster
Lenore Harris,1-633-535-8685,sem.molestie@aol.couk,Chile,218,Basse-Normandie
Kirestin Day,1-630-667-6663,aenean.eget.magna@icloud.ca,Indonesia,1525,Viken
Jada Bradshaw,1-976-885-3568,montes.nascetur@aol.org,Canada,1360,Cundinamarca
Ronan Vargas,(390) 964-5828,ut@outlook.ca,Germany,1597,Hà Tĩnh
Noble Jacobson,(283) 494-2241,semper.egestas.urna@hotmail.net,New Zealand,730,North West
Illiana Francis,(383) 221-0753,elit@protonmail.org,Austria,914,Omsk Oblast
Sean Simmons,1-491-754-9375,euismod.mauris@aol.couk,Poland,1340,Daman and Diu
Ralph Munoz,1-876-767-6516,tellus@protonmail.com,Costa Rica,232,Swiętokrzyskie
Iona Mcguire,1-615-357-2983,tristique@outlook.couk,Brazil,878,Östergötlands län
Skyler Pennington,1-308-882-8112,cursus.purus@outlook.net,United States,1441,Metropolitana de Santiago
Karen Floyd,1-911-554-5705,pellentesque.ultricies@outlook.org,Austria,1672,Gaziantep
Lucius Chase,1-965-216-2652,nec.urna@outlook.edu,Netherlands,345,Wisconsin
Linus Benton,(633) 558-8399,neque@google.ca,Singapore,1977,Leinster
Wylie Medina,(558) 278-3571,mauris@outlook.ca,Brazil,1648,Leinster
Ingrid Snow,(648) 376-4677,aliquam@hotmail.net,Indonesia,1670,Piura
Samuel Shelton,1-337-367-5875,porttitor@aol.net,Brazil,1781,Aisén
Elizabeth Mercer,1-730-319-7274,interdum.enim@aol.ca,Brazil,1700,Los Lagos
Tamara Berg,(751) 914-6552,cursus.nunc@aol.net,Chile,933,Kahramanmaraş
Ezekiel Bass,1-888-654-2284,urna.vivamus@protonmail.net,Mexico,166,Vestfold og Telemark
Serina Burnett,1-709-227-1005,fusce.feugiat.lorem@outlook.ca,Russian Federation,933,Xīnán
Carly Hogan,1-325-722-6354,dis.parturient.montes@outlook.edu,Colombia,485,Yaroslavl Oblast
Indigo Swanson,1-795-635-6864,pellentesque.tellus.sem@outlook.couk,Belgium,1759,North Gyeongsang
Amela White,1-243-404-4007,elit.etiam@protonmail.edu,Nigeria,1742,Oost-Vlaanderen
Maryam Christensen,(818) 866-7331,tellus.imperdiet.non@yahoo.ca,China,361,Friesland
Jaden Sherman,(995) 423-6668,orci@yahoo.com,New Zealand,171,Saarland
Katell Humphrey,1-356-825-2642,quam.dignissim@outlook.edu,South Africa,275,Brandenburg
Joel Ware,1-272-930-2580,nec.eleifend.non@outlook.couk,Pakistan,790,Northern Territory
Jennifer Joseph,(251) 214-5611,est.nunc@icloud.ca,Chile,572,Nordland
Jamalia Trujillo,1-983-103-8872,cras@hotmail.edu,Spain,279,Bangka Belitung Islands
Aaron Sanders,(337) 354-5863,ut.aliquam.iaculis@google.ca,Ukraine,479,West Sulawesi
Uma Carson,(331) 598-4773,inceptos.hymenaeos.mauris@yahoo.ca,Germany,1872,Rogaland
Randall Wallace,(166) 299-7735,posuere.cubilia@google.org,Vietnam,1483,Yukon
Harrison Jackson,(435) 543-7056,odio@icloud.ca,Nigeria,1828,Styria
Demetrius Allison,1-241-733-5611,faucibus.morbi@aol.com,Brazil,1943,West Nusa Tenggara
Caryn George,1-925-386-5493,in.felis@outlook.couk,Vietnam,1810,Veracruz
Darryl Garrison,1-995-626-4244,iaculis.quis.pede@icloud.edu,Peru,885,Gävleborgs län
Harriet Rose,1-273-663-1755,nisi.dictum@google.couk,South Korea,439,Andalucía
Shelley Huffman,(336) 276-2823,lobortis.risus@protonmail.couk,Austria,551,South Australia
Burke Hinton,1-134-278-8359,pharetra.quisque@aol.org,Austria,534,Metropolitana de Santiago
Alea Woodward,(732) 539-4542,senectus@yahoo.com,Philippines,1602,Bihar
Stuart Mays,(853) 280-5173,nunc.pulvinar@hotmail.com,Peru,593,Nordland
Ciaran Woodard,(694) 212-7765,dolor.nulla@aol.ca,United States,1871,Coquimbo
Jasmine Hebert,1-121-852-3639,eu.metus@yahoo.com,Nigeria,1640,Bangka Belitung Islands
Trevor Trujillo,(512) 307-1275,elit.sed@outlook.com,Ireland,746,Australian Capital Territory
Pamela Howell,1-848-481-9246,nisl.elementum@google.edu,Austria,333,Troms og Finnmark
Hayley Jimenez,1-472-520-1745,ridiculus.mus.aenean@google.ca,Italy,792,San José
Todd Head,(982) 740-1256,nunc.mauris@hotmail.couk,Chile,1498,British Columbia
Trevor Stephens,(237) 802-5616,elit.pharetra.ut@yahoo.ca,France,215,Central Sulawesi
Vaughan Anderson,1-657-429-3226,in.nec@icloud.org,Costa Rica,1429,Podlaskie
Pascale Collins,1-935-813-1217,ligula.eu.enim@google.com,Austria,1961,Gävleborgs län
Barrett Leach,(889) 254-7428,bibendum.ullamcorper@aol.com,Netherlands,815,Principado de Asturias
Noel Bonner,1-377-672-1227,turpis@protonmail.com,United States,951,Ilocos Region
Ali Garrison,(482) 773-5627,bibendum.sed.est@protonmail.net,United Kingdom,1948,Saint Petersburg City
Rudyard Herrera,(381) 700-7632,quisque.tincidunt.pede@google.couk,Russian Federation,751,Manisa
Cairo Hyde,(771) 858-5952,libero.morbi.accumsan@outlook.couk,Netherlands,383,Brussels Hoofdstedelijk Gewest
Ezra Serrano,(727) 833-6527,ipsum.suspendisse.sagittis@google.edu,Sweden,1062,Bangsamoro
Ima Glass,(880) 527-8251,egestas@yahoo.edu,Costa Rica,922,Podlaskie
Wynne Summers,1-433-692-9816,leo.morbi.neque@outlook.net,New Zealand,435,Antioquia
Timon Mcintyre,1-235-774-1055,sit@outlook.edu,Ireland,272,South Australia
Halee Stanley,1-326-377-1204,et@aol.org,India,445,Australian Capital Territory
Timon Reilly,(327) 342-6299,pretium.aliquet@yahoo.org,Canada,1689,North Island
Gavin Lopez,(571) 474-6678,velit.in@protonmail.edu,Poland,540,Guanacaste
Phyllis Owens,1-638-494-9684,vel.lectus@hotmail.com,Mexico,116,Alberta
Janna Guy,1-520-443-0124,tincidunt.congue@outlook.net,Norway,1974,Chernihiv oblast
Clark Todd,(523) 844-6265,sodales.at@protonmail.com,Italy,1615,Leinster
Quinn Lamb,(882) 339-8466,ac.metus.vitae@icloud.org,Italy,1813,Paraíba
Bethany Wilkinson,1-525-252-0626,commodo@icloud.org,Belgium,1338,Emilia-Romagna
Bernard Bridges,(562) 848-6434,sodales@yahoo.couk,Indonesia,698,Guanacaste
Branden Mcconnell,(171) 125-5484,morbi.metus.vivamus@protonmail.net,Pakistan,1048,Podkarpackie
Shannon Harris,(832) 655-6626,luctus.lobortis@hotmail.org,Singapore,667,Andaman and Nicobar Islands
Leslie Beach,1-654-693-8546,justo@aol.edu,India,1936,Sonora
Melinda Riggs,1-820-874-5622,sed.nunc@outlook.edu,New Zealand,1625,Dalarnas län
Marah Chase,1-789-620-4501,consectetuer.cursus@icloud.org,Costa Rica,755,Ulyanovsk Oblast
Lesley Brock,(278) 368-6012,duis.sit@protonmail.org,France,115,Loreto
Ava Neal,(816) 645-7716,ante@protonmail.org,Turkey,804,Sokoto
Nita Strong,(283) 447-2352,vitae.velit.egestas@icloud.org,Colombia,710,Hessen
Sean Christian,1-327-297-3658,magna.tellus@outlook.com,Nigeria,724,Hidalgo
Cody Orr,1-154-208-8707,mauris.elit.dictum@outlook.edu,Mexico,1121,Xīběi
Hilda Ashley,1-921-358-5838,ac@protonmail.net,Colombia,811,Atacama
